start=new Date('2021-12-18T00:00:00.000Z').valueOf();
sats=[{"LAUNCH_DATE":"2020-06-04","TIME_SYSTEM":"UTC","MEAN_MOTION":"15.06395652","COUNTRY_CODE":"US","INCLINATION":"53.0535","EPOCH":"2021-12-17T20:37:16.656384","TLE_LINE1":"1 45660U 20035D   21351.85922056 -.00000901  00000-0 -41613-4 0  9991","APOAPSIS":"548.511","ELEMENT_SET_NO":"999","DECAY_DATE":null,"SITE":"AFETR","ECCENTRICITY":"0.00018540","REF_FRAME":"TEME","PERIOD":"95.592","BSTAR":"-0.00004161300000","EPHEMERIS_TYPE":"0","MEAN_MOTION_DDOT":"0.0000000000000","MEAN_MOTION_DOT":"-0.00000901","OBJECT_ID":"2020-035D","ARG_OF_PERICENTER":"94.1649","RCS_SIZE":"LARGE","CLASSIFICATION_TYPE":"U","RA_OF_ASC_NODE":"152.6640","OBJECT_TYPE":"PAYLOAD","GP_ID":"191900427","OBJECT_NAME":"STARLINK-1443","TLE_LINE2":"2 45660  53.0535 152.6640 0001854  94.1649 265.9552 15.06395652 86199","FILE":"3243045","SEMIMAJOR_AXIS":"6925.362","CENTER_NAME":"EARTH","REV_AT_EPOCH":"8619","NORAD_CAT_ID":"45660","MEAN_ANOMALY":"265.9552","MEAN_ELEMENT_THEORY":"SGP4","PERIAPSIS":"545.943"},{"RA_OF_ASC_NODE":"152.8722","ARG_OF_PERICENTER":"91.5755","RCS_SIZE":"LARGE","OBJECT_ID":"2020-035E","CLASSIFICATION_TYPE":"U","OBJECT_NAME":"STARLINK-1444","SEMIMAJOR_AXIS":"6925.353","TLE_LINE2":"2 45661  53.0525 152.8722 0002465  91.5755 268.5516 15.06398592 86184","FILE":"3243045","OBJECT_TYPE":"PAYLOAD","GP_ID":"191900677","MEAN_ANOMALY":"268.5516","CENTER_NAME":"EARTH","NORAD_CAT_ID":"45661","REV_AT_EPOCH":"8618","MEAN_ELEMENT_THEORY":"SGP4","PERIAPSIS":"545.511","MEAN_MOTION":"15.06398592","LAUNCH_DATE":"2020-06-04","TIME_SYSTEM":"UTC","APOAPSIS":"548.925","COUNTRY_CODE":"US","TLE_LINE1":"1 45661U 20035E   21351.81130794 -.00000602  00000-0 -21513-4 0  9993","EPOCH":"2021-12-17T19:28:17.006016","INCLINATION":"53.0525","ECCENTRICITY":"0.00024650","REF_FRAME":"TEME","DECAY_DATE":null,"ELEMENT_SET_NO":"999","SITE":"AFETR","MEAN_MOTION_DOT":"-0.00000602","MEAN_MOTION_DDOT":"0.0000000000000","PERIOD":"95.592","BSTAR":"-0.00002151300000","EPHEMERIS_TYPE":"0"},{"MEAN_MOTION_DDOT":"0.0000000000000","MEAN_MOTION_DOT":"0.00001073","BSTAR":"0.00009093400000","EPHEMERIS_TYPE":"0","PERIOD":"95.591","REF_FRAME":"TEME","ECCENTRICITY":"0.00021210","SITE":"AFETR","ELEMENT_SET_NO":"999","DECAY_DATE":null,"APOAPSIS":"548.644","TLE_LINE1":"1 45662U 20035F   21351.82605425  .00001073  00000-0  90934-4 0  9997","EPOCH":"2021-12-17T19:49:31.087200","INCLINATION":"53.0528","COUNTRY_CODE":"US","MEAN_MOTION":"15.06412515","TIME_SYSTEM":"UTC","LAUNCH_DATE":"2020-06-04","PERIAPSIS":"545.706","MEAN_ELEMENT_THEORY":"SGP4","MEAN_ANOMALY":"270.9138","NORAD_CAT_ID":"45662","REV_AT_EPOCH":"8618","CENTER_NAME":"EARTH","SEMIMAJOR_AXIS":"6925.310","TLE_LINE2":"2 45662  53.0528 152.8058 0002121  89.2094 270.9138 15.06412515 86188","FILE":"3243045","OBJECT_NAME":"STARLINK-1445","GP_ID":"191900929","OBJECT_TYPE":"PAYLOAD","RA_OF_ASC_NODE":"152.8058","CLASSIFICATION_TYPE":"U","RCS_SIZE":"LARGE","ARG_OF_PERICENTER":"89.2094","OBJECT_ID":"2020-035F"},{"DECAY_DATE":null,"ELEMENT_SET_NO":"999","SITE":"AFETR","ECCENTRICITY":"0.00021800","REF_FRAME":"TEME","PERIOD":"95.593","BSTAR":"0.00008900600000","EPHEMERIS_TYPE":"0","MEAN_MOTION_DDOT":"0.0000000000000","MEAN_MOTION_DOT":"0.00001044","LAUNCH_DATE":"2020-06-04","TIME_SYSTEM":"UTC","MEAN_MOTION":"15.06393496","COUNTRY_CODE":"US","INCLINATION":"53.0533","TLE_LINE1":"1 45663U 20035G   21351.82976166  .00001044  00000-0  89006-4 0  9997","EPOCH":"2021-12-17T19:54:51.407424","APOAPSIS":"548.743","CENTER_NAME":"EARTH","REV_AT_EPOCH":"8618","NORAD_CAT_ID":"45663","MEAN_ANOMALY":"269.3147","MEAN_ELEMENT_THEORY":"SGP4","PERIAPSIS":"545.724","OBJECT_ID":"2020-035G","ARG_OF_PERICENTER":"90.8092","RCS_SIZE":"LARGE","CLASSIFICATION_TYPE":"U","RA_OF_ASC_NODE":"152.7868","OBJECT_TYPE":"PAYLOAD","GP_ID":"191901180","OBJECT_NAME":"STARLINK-1446","TLE_LINE2":"2 45663  53.0533 152.7868 0002180  90.8092 269.3147 15.06393496 86182","SEMIMAJOR_AXIS":"6925.368","FILE":"3243045"},{"TIME_SYSTEM":"UTC","LAUNCH_DATE":"2020-06-04","MEAN_MOTION":"15.06409906","TLE_LINE1":"1 45665U 20035J   21351.86290625  .00000930  00000-0  81335-4 0  9992","EPOCH":"2021-12-17T20:42:35.100000","INCLINATION":"53.0533","COUNTRY_CODE":"US","APOAPSIS":"548.833","SITE":"AFETR","DECAY_DATE":null,"ELEMENT_SET_NO":"999","REF_FRAME":"TEME","ECCENTRICITY":"0.00023820","BSTAR":"0.00008133500000","EPHEMERIS_TYPE":"0","PERIOD":"95.592","MEAN_MOTION_DOT":"0.00000930","MEAN_MOTION_DDOT":"0.0000000000000","CLASSIFICATION_TYPE":"U","RCS_SIZE":"LARGE","ARG_OF_PERICENTER":"91.7639","OBJECT_ID":"2020-035J","RA_OF_ASC_NODE":"152.6339","GP_ID":"191899928","OBJECT_TYPE":"PAYLOAD","TLE_LINE2":"2 45665  53.0533 152.6339 0002382  91.7639 268.3623 15.06409906 86189","FILE":"3243045","SEMIMAJOR_AXIS":"6925.318","OBJECT_NAME":"STARLINK-1448","NORAD_CAT_ID":"45665","REV_AT_EPOCH":"8618","CENTER_NAME":"EARTH","MEAN_ANOMALY":"268.3623","PERIAPSIS":"545.534","MEAN_ELEMENT_THEORY":"SGP4"},{"OBJECT_TYPE":"PAYLOAD","GP_ID":"191900178","OBJECT_NAME":"STARLINK-1449","TLE_LINE2":"2 45666  53.0543 152.6122 0002398  88.1226 272.0038 15.06403237 86183","FILE":"3243045","SEMIMAJOR_AXIS":"6925.339","OBJECT_ID":"2020-035K","RCS_SIZE":"LARGE","ARG_OF_PERICENTER":"88.1226","CLASSIFICATION_TYPE":"U","RA_OF_ASC_NODE":"152.6122","MEAN_ELEMENT_THEORY":"SGP4","PERIAPSIS":"545.543","CENTER_NAME":"EARTH","REV_AT_EPOCH":"8618","NORAD_CAT_ID":"45666","MEAN_ANOMALY":"272.0038","COUNTRY_CODE":"US","INCLINATION":"53.0543","EPOCH":"2021-12-17T20:51:53.218944","TLE_LINE1":"1 45666U 20035K   21351.86936596  .00000745  00000-0  68909-4 0  9993","APOAPSIS":"548.864","LAUNCH_DATE":"2020-06-04","TIME_SYSTEM":"UTC","MEAN_MOTION":"15.06403237","PERIOD":"95.592","EPHEMERIS_TYPE":"0","BSTAR":"0.00006890900000","MEAN_MOTION_DDOT":"0.0000000000000","MEAN_MOTION_DOT":"0.00000745","DECAY_DATE":null,"ELEMENT_SET_NO":"999","SITE":"AFETR","ECCENTRICITY":"0.00023980","REF_FRAME":"TEME"},{"RA_OF_ASC_NODE":"152.9174","CLASSIFICATION_TYPE":"U","OBJECT_ID":"2020-035L","RCS_SIZE":"LARGE","ARG_OF_PERICENTER":"93.4955","TLE_LINE2":"2 45667  53.0533 152.9174 0002088  93.4955 266.6273 15.06405905 86170","FILE":"3243045","SEMIMAJOR_AXIS":"6925.330","OBJECT_NAME":"STARLINK-1450","GP_ID":"191901429","OBJECT_TYPE":"PAYLOAD","MEAN_ANOMALY":"266.6273","REV_AT_EPOCH":"8617","NORAD_CAT_ID":"45667","CENTER_NAME":"EARTH","PERIAPSIS":"545.749","MEAN_ELEMENT_THEORY":"SGP4","MEAN_MOTION":"15.06405905","TIME_SYSTEM":"UTC","LAUNCH_DATE":"2020-06-04","APOAPSIS":"548.641","INCLINATION":"53.0533","EPOCH":"2021-12-17T19:12:22.927968","TLE_LINE1":"1 45667U 20035L   21351.80026537  .00001115  00000-0  93756-4 0  9993","COUNTRY_CODE":"US","REF_FRAME":"TEME","ECCENTRICITY":"0.00020880","SITE":"AFETR","ELEMENT_SET_NO":"999","DECAY_DATE":null,"MEAN_MOTION_DDOT":"0.0000000000000","MEAN_MOTION_DOT":"0.00001115","EPHEMERIS_TYPE":"0","BSTAR":"0.00009375600000","PERIOD":"95.592"},{"NORAD_CAT_ID":"45668","REV_AT_EPOCH":"8619","CENTER_NAME":"EARTH","MEAN_ANOMALY":"253.5481","PERIAPSIS":"545.412","MEAN_ELEMENT_THEORY":"SGP4","CLASSIFICATION_TYPE":"U","ARG_OF_PERICENTER":"106.5796","RCS_SIZE":"LARGE","OBJECT_ID":"2020-035M","RA_OF_ASC_NODE":"152.7178","GP_ID":"191901680","OBJECT_TYPE":"PAYLOAD","FILE":"3243045","TLE_LINE2":"2 45668  53.0567 152.7178 0002627 106.5796 253.5481 15.06394087 86194","SEMIMAJOR_AXIS":"6925.367","OBJECT_NAME":"STARLINK-1451","SITE":"AFETR","DECAY_DATE":null,"ELEMENT_SET_NO":"999","REF_FRAME":"TEME","ECCENTRICITY":"0.00026270","BSTAR":"0.00006872800000","EPHEMERIS_TYPE":"0","PERIOD":"95.593","MEAN_MOTION_DDOT":"0.0000000000000","MEAN_MOTION_DOT":"0.00000742","TIME_SYSTEM":"UTC","LAUNCH_DATE":"2020-06-04","MEAN_MOTION":"15.06394087","TLE_LINE1":"1 45668U 20035M   21351.83619148  .00000742  00000-0  68728-4 0  9999","EPOCH":"2021-12-17T20:04:06.943872","INCLINATION":"53.0567","COUNTRY_CODE":"US","APOAPSIS":"549.051"},{"PERIAPSIS":"545.827","MEAN_ELEMENT_THEORY":"SGP4","MEAN_ANOMALY":"276.2092","NORAD_CAT_ID":"45669","REV_AT_EPOCH":"8618","CENTER_NAME":"EARTH","TLE_LINE2":"2 45669  53.0536 152.8360 0002030  83.9128 276.2092 15.06393767 86183","FILE":"3243045","SEMIMAJOR_AXIS":"6925.368","OBJECT_NAME":"STARLINK-1452","GP_ID":"191900428","OBJECT_TYPE":"PAYLOAD","RA_OF_ASC_NODE":"152.8360","CLASSIFICATION_TYPE":"U","ARG_OF_PERICENTER":"83.9128","RCS_SIZE":"LARGE","OBJECT_ID":"2020-035N","MEAN_MOTION_DDOT":"0.0000000000000","MEAN_MOTION_DOT":"0.00000920","BSTAR":"0.00008069200000","EPHEMERIS_TYPE":"0","PERIOD":"95.593","REF_FRAME":"TEME","ECCENTRICITY":"0.00020300","SITE":"AFETR","DECAY_DATE":null,"ELEMENT_SET_NO":"999","APOAPSIS":"548.639","EPOCH":"2021-12-17T19:38:56.602752","TLE_LINE1":"1 45669U 20035N   21351.81871068  .00000920  00000-0  80692-4 0  9991","INCLINATION":"53.0536","COUNTRY_CODE":"US","MEAN_MOTION":"15.06393767","TIME_SYSTEM":"UTC","LAUNCH_DATE":"2020-06-04"},{"DECAY_DATE":null,"ELEMENT_SET_NO":"999","SITE":"AFETR","ECCENTRICITY":"0.00018050","REF_FRAME":"TEME","PERIOD":"95.592","BSTAR":"0.00014911000000","EPHEMERIS_TYPE":"0","MEAN_MOTION_DOT":"0.00001940","MEAN_MOTION_DDOT":"0.0000000000000","LAUNCH_DATE":"2020-06-04","TIME_SYSTEM":"UTC","MEAN_MOTION":"15.06404182","COUNTRY_CODE":"US","TLE_LINE1":"1 45670U 20035P   21351.81037614  .00001940  00000-0  14911-3 0  9997","EPOCH":"2021-12-17T19:26:56.498496","INCLINATION":"53.0552","APOAPSIS":"548.451","CENTER_NAME":"EARTH","NORAD_CAT_ID":"45670","REV_AT_EPOCH":"8649","MEAN_ANOMALY":"259.9880","MEAN_ELEMENT_THEORY":"SGP4","PERIAPSIS":"545.951","RCS_SIZE":"LARGE","ARG_OF_PERICENTER":"100.1312","OBJECT_ID":"2020-035P","CLASSIFICATION_TYPE":"U","RA_OF_ASC_NODE":"122.8673","OBJECT_TYPE":"PAYLOAD","GP_ID":"191900678","OBJECT_NAME":"STARLINK-1453","TLE_LINE2":"2 45670  53.0552 122.8673 0001805 100.1312 259.9880 15.06404182 86494","FILE":"3243045","SEMIMAJOR_AXIS":"6925.336"}];
